{
  "norad_id": 66011,
  "name": "STARLINK-35256",
  "history": [
    {
      "epoch": "2026-03-28T19:01:33.436704Z",
      "apogee_km": 476.2260661465516,
      "perigee_km": 474.0944165725987,
      "latitude_deg": -1.4686062000301343e-06,
      "longitude_deg": -96.65672477084567,
      "height_km": 476.25310266135773,
      "semi_major_axis_km": 6853.297241359574,
      "eccentricity": 0.00015552,
      "inclination_deg": 53.1623,
      "raan_deg": 14.9407,
      "arg_perigee_deg": 100.5363,
      "mean_anomaly_deg": 259.5813,
      "mean_motion_rev_day": 15.30218363
    },
    {
      "epoch": "2026-03-29T01:17:46.687776Z",
      "apogee_km": 476.1827361698879,
      "perigee_km": 474.30216884811944,
      "latitude_deg": 1.2122787806864063e-05,
      "longitude_deg": 167.81775847881258,
      "height_km": 476.10567600477174,
      "semi_major_axis_km": 6853.379452509003,
      "eccentricity": 0.0001372,
      "inclination_deg": 53.1624,
      "raan_deg": 13.7279,
      "arg_perigee_deg": 87.8689,
      "mean_anomaly_deg": 272.2469,
      "mean_motion_rev_day": 15.30190829
    },
    {
      "epoch": "2026-03-30T03:56:41.834976Z",
      "apogee_km": 475.9669634792417,
      "perigee_km": 474.4252376649365,
      "latitude_deg": -4.99605119130233e-05,
      "longitude_deg": 121.83611164829304,
      "height_km": 475.8828502019859,
      "semi_major_axis_km": 6853.333100572088,
      "eccentricity": 0.00011248,
      "inclination_deg": 53.1613,
      "raan_deg": 8.5705,
      "arg_perigee_deg": 74.0575,
      "mean_anomaly_deg": 286.0549,
      "mean_motion_rev_day": 15.30206353
    },
    {
      "epoch": "2026-03-30T11:46:58.104192Z",
      "apogee_km": 476.0211884360515,
      "perigee_km": 474.3905040392183,
      "latitude_deg": 1.0706901446751956e-05,
      "longitude_deg": 2.4296796562415874,
      "height_km": 475.882243071946,
      "semi_major_axis_km": 6853.342846237635,
      "eccentricity": 0.00011897,
      "inclination_deg": 53.1622,
      "raan_deg": 7.0537,
      "arg_perigee_deg": 74.1936,
      "mean_anomaly_deg": 285.9196,
      "mean_motion_rev_day": 15.30203089
    },
    {
      "epoch": "2026-03-31T11:17:45.010176Z",
      "apogee_km": 476.0252703405731,
      "perigee_km": 474.1844895716167,
      "latitude_deg": -1.104915800398695e-05,
      "longitude_deg": 4.216377291172394,
      "height_km": 475.9283686491097,
      "semi_major_axis_km": 6853.241879956095,
      "eccentricity": 0.0001343,
      "inclination_deg": 53.1625,
      "raan_deg": 2.5015,
      "arg_perigee_deg": 85.3398,
      "mean_anomaly_deg": 274.7756,
      "mean_motion_rev_day": 15.30236905
    },
    {
      "epoch": "2026-04-01T10:48:33.582816Z",
      "apogee_km": 475.9661071112396,
      "perigee_km": 474.6433928534934,
      "latitude_deg": 2.6282673386151666e-05,
      "longitude_deg": 5.999455582774704,
      "height_km": 475.9214970474111,
      "semi_major_axis_km": 6853.441749982367,
      "eccentricity": 9.65e-05,
      "inclination_deg": 53.1606,
      "raan_deg": 357.9526,
      "arg_perigee_deg": 64.769,
      "mean_anomaly_deg": 295.3411,
      "mean_motion_rev_day": 15.30169965
    },
    {
      "epoch": "2026-04-02T10:19:21.710496Z",
      "apogee_km": 476.16761971782216,
      "perigee_km": 474.12849328211087,
      "latitude_deg": -2.122077828022154e-05,
      "longitude_deg": 7.7827294260357345,
      "height_km": 475.8586311483199,
      "semi_major_axis_km": 6853.285056499966,
      "eccentricity": 0.00014877,
      "inclination_deg": 53.1605,
      "raan_deg": 353.4021,
      "arg_perigee_deg": 79.4141,
      "mean_anomaly_deg": 280.7027,
      "mean_motion_rev_day": 15.30222444
    },
    {
      "epoch": "2026-04-02T22:51:46.441440Z",
      "apogee_km": 475.48789686298096,
      "perigee_km": 474.731572553339,
      "latitude_deg": -7.797252629788052e-06,
      "longitude_deg": 176.7376863528219,
      "height_km": 476.0718897727014,
      "semi_major_axis_km": 6853.24673470816,
      "eccentricity": 5.518e-05,
      "inclination_deg": 53.16,
      "raan_deg": 350.9751,
      "arg_perigee_deg": 99.6064,
      "mean_anomaly_deg": 260.4999,
      "mean_motion_rev_day": 15.30235279
    },
    {
      "epoch": "2026-04-03T20:48:32.221440Z",
      "apogee_km": 476.1430432720945,
      "perigee_km": 474.3310111792962,
      "latitude_deg": -3.259967897254405e-05,
      "longitude_deg": -157.60147440594955,
      "height_km": 476.55110118629364,
      "semi_major_axis_km": 6853.3740272256955,
      "eccentricity": 0.0001322,
      "inclination_deg": 53.1596,
      "raan_deg": 346.728,
      "arg_perigee_deg": 117.3266,
      "mean_anomaly_deg": 242.7869,
      "mean_motion_rev_day": 15.30192646
    },
    {
      "epoch": "2026-04-04T20:19:19.634592Z",
      "apogee_km": 476.2745723107673,
      "perigee_km": 474.46250544628765,
      "latitude_deg": -3.417304862462027e-05,
      "longitude_deg": -155.81608278565014,
      "height_km": 476.6450404495113,
      "semi_major_axis_km": 6853.505538878528,
      "eccentricity": 0.0001322,
      "inclination_deg": 53.159,
      "raan_deg": 342.1766,
      "arg_perigee_deg": 114.6903,
      "mean_anomaly_deg": 245.4235,
      "mean_motion_rev_day": 15.30148602
    },
    {
      "epoch": "2026-04-05T08:51:46.611936Z",
      "apogee_km": 476.03709816403443,
      "perigee_km": 474.5736140833087,
      "latitude_deg": 5.978218640290911e-05,
      "longitude_deg": 13.130447344636492,
      "height_km": 476.2876068054335,
      "semi_major_axis_km": 6853.442356123672,
      "eccentricity": 0.00010677,
      "inclination_deg": 53.1591,
      "raan_deg": 339.7505,
      "arg_perigee_deg": 96.5926,
      "mean_anomaly_deg": 263.5197,
      "mean_motion_rev_day": 15.30169762
    },
    {
      "epoch": "2026-04-05T19:50:09.154176Z",
      "apogee_km": 475.91529213036756,
      "perigee_km": 474.53228392334313,
      "latitude_deg": -2.787771631938754e-05,
      "longitude_deg": -154.03808694350215,
      "height_km": 476.2129469637616,
      "semi_major_axis_km": 6853.360788026855,
      "eccentricity": 0.0001009,
      "inclination_deg": 53.1587,
      "raan_deg": 337.6266,
      "arg_perigee_deg": 97.55,
      "mean_anomaly_deg": 262.5615,
      "mean_motion_rev_day": 15.3019708
    },
    {
      "epoch": "2026-04-06T02:06:21.686400Z",
      "apogee_km": 475.9066007838901,
      "perigee_km": 474.4246426249729,
      "latitude_deg": 1.0413534572762612e-06,
      "longitude_deg": 110.43821065319214,
      "height_km": 476.1846406631996,
      "semi_major_axis_km": 6853.302621704432,
      "eccentricity": 0.00010812,
      "inclination_deg": 53.1591,
      "raan_deg": 336.4126,
      "arg_perigee_deg": 99.3796,
      "mean_anomaly_deg": 260.7327,
      "mean_motion_rev_day": 15.30216561
    },
    {
      "epoch": "2026-04-07T20:25:47.074656Z",
      "apogee_km": 475.8017147092678,
      "perigee_km": 474.63527360416356,
      "latitude_deg": 8.379742038169438e-06,
      "longitude_deg": -174.3478464131063,
      "height_km": 475.89611245612826,
      "semi_major_axis_km": 6853.355494156715,
      "eccentricity": 8.51e-05,
      "inclination_deg": 53.1591,
      "raan_deg": 328.2205,
      "arg_perigee_deg": 67.7317,
      "mean_anomaly_deg": 292.3774,
      "mean_motion_rev_day": 15.30198853
    },
    {
      "epoch": "2026-04-07T21:59:50.028864Z",
      "apogee_km": 475.8579174988654,
      "perigee_km": 474.53659465429337,
      "latitude_deg": -5.241070844006497e-05,
      "longitude_deg": 161.7720244880245,
      "height_km": 476.41360025698214,
      "semi_major_axis_km": 6853.334256076579,
      "eccentricity": 9.64e-05,
      "inclination_deg": 53.1596,
      "raan_deg": 327.9171,
      "arg_perigee_deg": 118.7468,
      "mean_anomaly_deg": 241.3629,
      "mean_motion_rev_day": 15.30205966
    }
  ]
}